{
    "links": {
        "self": "http://www.neowsapp.com/rest/v1/neo/3604843?api_key=iIulBulltgU6a56xZRHN4H3l9WmuAYTsLGpBGhQ2"
    },
    "id": "3604843",
    "neo_reference_id": "3604843",
    "name": "(2012 KO18)",
    "designation": "2012 KO18",
    "nasa_jpl_url": "http://ssd.jpl.nasa.gov/sbdb.cgi?sstr=3604843",
    "absolute_magnitude_h": 22.1,
    "estimated_diameter": {
        "kilometers": {
            "estimated_diameter_min": 0.1010543415,
            "estimated_diameter_max": 0.2259643771
        },
        "meters": {
            "estimated_diameter_min": 101.054341542,
            "estimated_diameter_max": 225.9643771094
        },
        "miles": {
            "estimated_diameter_min": 0.0627922373,
            "estimated_diameter_max": 0.140407711
        },
        "feet": {
            "estimated_diameter_min": 331.5431259047,
            "estimated_diameter_max": 741.3529669956
        }
    },
    "is_potentially_hazardous_asteroid": false,
    "close_approach_data": [
        {
            "close_approach_date": "2012-06-02",
            "close_approach_date_full": "2012-Jun-02 21:13",
            "epoch_date_close_approach": 1338671580000,
            "relative_velocity": {
                "kilometers_per_second": "15.2776181477",
                "kilometers_per_hour": "54999.4253318154",
                "miles_per_hour": "34174.5040346494"
            },
            "miss_distance": {
                "astronomical": "0.0825559823",
                "lunar": "32.1142771147",
                "kilometers": "12350199.107837701",
                "miles": "7674057.8748182338"
            },
            "orbiting_body": "Earth"
        },
        {
            "close_approach_date": "2012-07-18",
            "close_approach_date_full": "2012-Jul-18 18:54",
            "epoch_date_close_approach": 1342637640000,
            "relative_velocity": {
                "kilometers_per_second": "9.5615609588",
                "kilometers_per_hour": "34421.6194515617",
                "miles_per_hour": "21388.2557086662"
            },
            "miss_distance": {
                "astronomical": "0.1176521976",
                "lunar": "45.7667048664",
                "kilometers": "17600518.161779112",
                "miles": "10936454.8555792656"
            },
            "orbiting_body": "Venus"
        }
    ],
    "orbital_data": {
        "orbit_id": "12",
        "orbit_determination_date": "2017-04-06 08:49:43",
        "first_observation_date": "2012-05-22",
        "last_observation_date": "2012-06-03",
        "data_arc_in_days": 12,
        "observations_used": 67,
        "orbit_uncertainty": "9",
        "minimum_orbit_intersection": ".0305148",
        "jupiter_tisserand_invariant": "3.322",
        "epoch_osculation": "2456072.5",
        "eccentricity": ".6593006551123514",
        "semi_major_axis": "2.219313287434048",
        "inclination": "5.755103251882531",
        "ascending_node_longitude": "221.4366298256492",
        "orbital_period": "1207.609016311755",
        "perihelion_distance": ".7561185831292341",
        "perihelion_argument": "94.96266025526563",
        "aphelion_distance": "3.682507991738863",
        "perihelion_time": "2456124.155430443074",
        "mean_anomaly": "344.6010134834022",
        "mean_motion": ".2981097318232201",
        "equinox": "J2000",
        "orbit_class": {
            "orbit_class_type": "APO",
            "orbit_class_description": "Near-Earth asteroid orbits which cross the Earth’s orbit similar to that of 1862 Apollo",
            "orbit_class_range": "a (semi-major axis) > 1.0 AU; q (perihelion) < 1.017 AU"
        }
    },
    "is_sentry_object": false
}